[{"OBJECT_NAME":"STARLINK-5044","OBJECT_ID":"2022-119N","EPOCH":"2026-03-09T22:07:50.755872","MEAN_MOTION":15.08833709,"ECCENTRICITY":0.00012508,"INCLINATION":53.2189,"RA_OF_ASC_NODE":322.7953,"ARG_OF_PERICENTER":89.0738,"MEAN_ANOMALY":271.0397,"EPHEMERIS_TYPE":0,"CLASSIFICATION_TYPE":"U","NORAD_CAT_ID":53898,"ELEMENT_SET_NO":999,"REV_AT_EPOCH":19172,"BSTAR":-2.937456e-6,"MEAN_MOTION_DOT":-3.35e-6,"MEAN_MOTION_DDOT":0},{"OBJECT_NAME":"POSAT-2","OBJECT_ID":"2025-009DR","EPOCH":"2026-03-09T23:15:20.314368","MEAN_MOTION":15.10404492,"ECCENTRICITY":0.00077103,"INCLINATION":97.4906,"RA_OF_ASC_NODE":146.0095,"ARG_OF_PERICENTER":126.4226,"MEAN_ANOMALY":233.7715,"EPHEMERIS_TYPE":0,"CLASSIFICATION_TYPE":"U","NORAD_CAT_ID":63488,"ELEMENT_SET_NO":999,"REV_AT_EPOCH":5165,"BSTAR":0.0010942248,"MEAN_MOTION_DOT":0.00017957,"MEAN_MOTION_DDOT":0}]
